[{"OBJECT_NAME":"STARLINK-31993","OBJECT_ID":"2024-107S","EPOCH":"2026-03-09T06:44:36.926016","MEAN_MOTION":15.30197661,"ECCENTRICITY":0.00012122,"INCLINATION":53.161,"RA_OF_ASC_NODE":67.4421,"ARG_OF_PERICENTER":86.4352,"MEAN_ANOMALY":273.6787,"EPHEMERIS_TYPE":0,"CLASSIFICATION_TYPE":"U","NORAD_CAT_ID":59961,"ELEMENT_SET_NO":999,"REV_AT_EPOCH":9967,"BSTAR":2.1540336e-5,"MEAN_MOTION_DOT":2.79e-6,"MEAN_MOTION_DDOT":0},{"OBJECT_NAME":"JINJUSAT-1B","OBJECT_ID":"2025-052A","EPOCH":"2026-03-09T15:55:38.242848","MEAN_MOTION":15.30194857,"ECCENTRICITY":0.00055504,"INCLINATION":97.4113,"RA_OF_ASC_NODE":325.4613,"ARG_OF_PERICENTER":82.193,"MEAN_ANOMALY":277.9941,"EPHEMERIS_TYPE":0,"CLASSIFICATION_TYPE":"U","NORAD_CAT_ID":63210,"ELEMENT_SET_NO":999,"REV_AT_EPOCH":5486,"BSTAR":0.00068430401,"MEAN_MOTION_DOT":0.00019955,"MEAN_MOTION_DDOT":0}]
